[{"OBJECT_NAME":"SHIYAN-4 (SY-4)","OBJECT_ID":"2011-068B","EPOCH":"2026-03-09T23:00:28.675872","MEAN_MOTION":14.31088676,"ECCENTRICITY":0.00240064,"INCLINATION":98.7036,"RA_OF_ASC_NODE":87.8563,"ARG_OF_PERICENTER":77.8488,"MEAN_ANOMALY":342.0096,"EPHEMERIS_TYPE":0,"CLASSIFICATION_TYPE":"U","NORAD_CAT_ID":37931,"ELEMENT_SET_NO":999,"REV_AT_EPOCH":74470,"BSTAR":0.00010117128,"MEAN_MOTION_DOT":2.23e-6,"MEAN_MOTION_DDOT":0},{"OBJECT_NAME":"CZ-4B DEB","OBJECT_ID":"1999-057MW","EPOCH":"2026-03-09T07:43:02.715744","MEAN_MOTION":14.32051941,"ECCENTRICITY":0.01091139,"INCLINATION":98.9031,"RA_OF_ASC_NODE":97.7654,"ARG_OF_PERICENTER":25.2675,"MEAN_ANOMALY":335.3789,"EPHEMERIS_TYPE":0,"CLASSIFICATION_TYPE":"U","NORAD_CAT_ID":27806,"ELEMENT_SET_NO":999,"REV_AT_EPOCH":26812,"BSTAR":8.7131901e-5,"MEAN_MOTION_DOT":2.02e-6,"MEAN_MOTION_DDOT":0}]
